start=new Date('2021-09-16T00:00:00.000Z').valueOf();
sats=[{"RA_OF_ASC_NODE":"79.8637","LAUNCH_DATE":"2020-08-18","ECCENTRICITY":"0.00018030","CLASSIFICATION_TYPE":"U","OBJECT_NAME":"STARLINK-1633","TLE_LINE2":"2 46171  53.0541  79.8637 0001803  91.0110 269.1086 15.06389832 61052","CENTER_NAME":"EARTH","SITE":"AFETR","SEMIMAJOR_AXIS":"6925.380","REV_AT_EPOCH":"6105","MEAN_MOTION_DDOT":"0.0000000000000","DECAY_DATE":null,"OBJECT_ID":"2020-057BG","OBJECT_TYPE":"PAYLOAD","FILE":"3116597","INCLINATION":"53.0541","NORAD_CAT_ID":"46171","TIME_SYSTEM":"UTC","MEAN_MOTION":"15.06389832","EPOCH":"2021-09-15T22:08:56.475168","GP_ID":"184788456","REF_FRAME":"TEME","MEAN_ANOMALY":"269.1086","PERIAPSIS":"545.996","EPHEMERIS_TYPE":"0","MEAN_ELEMENT_THEORY":"SGP4","MEAN_MOTION_DOT":"-0.00001020","BSTAR":"-0.00004962500000","ELEMENT_SET_NO":"999","ARG_OF_PERICENTER":"91.0110","PERIOD":"95.593","TLE_LINE1":"1 46171U 20057BG  21258.92287587 -.00001020  00000-0 -49625-4 0  9994","COUNTRY_CODE":"US","APOAPSIS":"548.493","RCS_SIZE":"LARGE"},{"APOAPSIS":"548.557","RCS_SIZE":"LARGE","ELEMENT_SET_NO":"999","BSTAR":"-0.00003400700000","ARG_OF_PERICENTER":"98.3826","PERIOD":"95.593","TLE_LINE1":"1 46172U 20057BH  21258.80492689 -.00000788  00000-0 -34007-4 0  9991","COUNTRY_CODE":"US","REF_FRAME":"TEME","GP_ID":"184787207","MEAN_ANOMALY":"261.7377","EPHEMERIS_TYPE":"0","PERIAPSIS":"545.952","MEAN_MOTION_DOT":"-0.00000788","MEAN_ELEMENT_THEORY":"SGP4","FILE":"3116597","NORAD_CAT_ID":"46172","MEAN_MOTION":"15.06386568","TIME_SYSTEM":"UTC","INCLINATION":"53.0572","EPOCH":"2021-09-15T19:19:05.683296","OBJECT_TYPE":"PAYLOAD","MEAN_MOTION_DDOT":"0.0000000000000","DECAY_DATE":null,"OBJECT_ID":"2020-057BH","TLE_LINE2":"2 46172  53.0572  80.3956 0001881  98.3826 261.7377 15.06386568 61030","SITE":"AFETR","CENTER_NAME":"EARTH","REV_AT_EPOCH":"6103","SEMIMAJOR_AXIS":"6925.390","LAUNCH_DATE":"2020-08-18","RA_OF_ASC_NODE":"80.3956","ECCENTRICITY":"0.00018810","OBJECT_NAME":"STARLINK-1635","CLASSIFICATION_TYPE":"U"},{"MEAN_MOTION_DDOT":"0.0000000000000","DECAY_DATE":null,"OBJECT_ID":"2020-057BJ","OBJECT_TYPE":"PAYLOAD","LAUNCH_DATE":"2020-08-18","RA_OF_ASC_NODE":"100.1875","ECCENTRICITY":"0.00019440","CLASSIFICATION_TYPE":"U","OBJECT_NAME":"STARLINK-1640","TLE_LINE2":"2 46173  53.0543 100.1875 0001944  85.9450 274.1761 15.06391329 59500","SITE":"AFETR","CENTER_NAME":"EARTH","REV_AT_EPOCH":"5950","SEMIMAJOR_AXIS":"6925.375","ELEMENT_SET_NO":"999","BSTAR":"-0.00005143900000","ARG_OF_PERICENTER":"85.9450","PERIOD":"95.593","TLE_LINE1":"1 46173U 20057BJ  21258.85099891 -.00001048  00000-0 -51439-4 0  9993","COUNTRY_CODE":"US","APOAPSIS":"548.586","RCS_SIZE":"LARGE","FILE":"3116597","NORAD_CAT_ID":"46173","MEAN_MOTION":"15.06391329","TIME_SYSTEM":"UTC","INCLINATION":"53.0543","EPOCH":"2021-09-15T20:25:26.305824","GP_ID":"184787957","MEAN_ANOMALY":"274.1761","REF_FRAME":"TEME","EPHEMERIS_TYPE":"0","PERIAPSIS":"545.894","MEAN_MOTION_DOT":"-0.00001048","MEAN_ELEMENT_THEORY":"SGP4"},{"RCS_SIZE":"LARGE","APOAPSIS":"548.509","TLE_LINE1":"1 46174U 20057BK  21258.85836484  .00000998  00000-0  85870-4 0  9998","PERIOD":"95.592","COUNTRY_CODE":"US","ARG_OF_PERICENTER":"87.2874","BSTAR":"0.00008587000000","ELEMENT_SET_NO":"999","MEAN_ELEMENT_THEORY":"SGP4","MEAN_MOTION_DOT":"0.00000998","PERIAPSIS":"545.938","EPHEMERIS_TYPE":"0","REF_FRAME":"TEME","GP_ID":"184788709","MEAN_ANOMALY":"272.8327","EPOCH":"2021-09-15T20:36:02.722176","INCLINATION":"53.0547","NORAD_CAT_ID":"46174","TIME_SYSTEM":"UTC","MEAN_MOTION":"15.06396810","FILE":"3116597","OBJECT_TYPE":"PAYLOAD","OBJECT_ID":"2020-057BK","DECAY_DATE":null,"MEAN_MOTION_DDOT":"0.0000000000000","SEMIMAJOR_AXIS":"6925.358","REV_AT_EPOCH":"5950","CENTER_NAME":"EARTH","SITE":"AFETR","TLE_LINE2":"2 46174  53.0547 100.1456 0001856  87.2874 272.8327 15.06396810 59500","OBJECT_NAME":"STARLINK-1641","CLASSIFICATION_TYPE":"U","ECCENTRICITY":"0.00018560","RA_OF_ASC_NODE":"100.1456","LAUNCH_DATE":"2020-08-18"},{"EPOCH":"2021-09-15T20:52:39.078336","INCLINATION":"53.0541","TIME_SYSTEM":"UTC","NORAD_CAT_ID":"46325","MEAN_MOTION":"15.06392604","FILE":"3116597","MEAN_ELEMENT_THEORY":"SGP4","MEAN_MOTION_DOT":"0.00001154","PERIAPSIS":"545.688","EPHEMERIS_TYPE":"0","REF_FRAME":"TEME","GP_ID":"184788721","MEAN_ANOMALY":"278.8778","COUNTRY_CODE":"US","TLE_LINE1":"1 46325U 20062A   21258.86989674  .00001154  00000-0  96418-4 0  9998","PERIOD":"95.593","ARG_OF_PERICENTER":"81.2464","BSTAR":"0.00009641800000","ELEMENT_SET_NO":"999","RCS_SIZE":"LARGE","APOAPSIS":"548.784","CLASSIFICATION_TYPE":"U","OBJECT_NAME":"STARLINK-1734","ECCENTRICITY":"0.00022350","RA_OF_ASC_NODE":"115.1049","LAUNCH_DATE":"2020-09-03","SEMIMAJOR_AXIS":"6925.371","REV_AT_EPOCH":"5899","CENTER_NAME":"EARTH","SITE":"AFETR","TLE_LINE2":"2 46325  53.0541 115.1049 0002235  81.2464 278.8778 15.06392604 58992","DECAY_DATE":null,"OBJECT_ID":"2020-062A","MEAN_MOTION_DDOT":"0.0000000000000","OBJECT_TYPE":"PAYLOAD"},{"APOAPSIS":"548.526","RCS_SIZE":"LARGE","ARG_OF_PERICENTER":"63.3760","BSTAR":"0.00010326000000","ELEMENT_SET_NO":"999","TLE_LINE1":"1 46326U 20062B   21258.91085905  .00001257  00000-0  10326-3 0  9996","COUNTRY_CODE":"US","PERIOD":"95.592","PERIAPSIS":"545.896","EPHEMERIS_TYPE":"0","GP_ID":"184788969","MEAN_ANOMALY":"296.7424","REF_FRAME":"TEME","MEAN_ELEMENT_THEORY":"SGP4","MEAN_MOTION_DOT":"0.00001257","INCLINATION":"53.0533","TIME_SYSTEM":"UTC","NORAD_CAT_ID":"46326","MEAN_MOTION":"15.06400864","FILE":"3116597","EPOCH":"2021-09-15T21:51:38.221920","OBJECT_TYPE":"PAYLOAD","DECAY_DATE":null,"OBJECT_ID":"2020-062B","MEAN_MOTION_DDOT":"0.0000000000000","CENTER_NAME":"EARTH","SITE":"AFETR","TLE_LINE2":"2 46326  53.0533 159.9208 0001899  63.3760 296.7424 15.06400864 57761","REV_AT_EPOCH":"5776","SEMIMAJOR_AXIS":"6925.346","ECCENTRICITY":"0.00018990","LAUNCH_DATE":"2020-09-03","RA_OF_ASC_NODE":"159.9208","OBJECT_NAME":"STARLINK-1654","CLASSIFICATION_TYPE":"U"},{"EPOCH":"2021-09-15T21:21:09.793152","NORAD_CAT_ID":"46327","MEAN_MOTION":"15.06394809","TIME_SYSTEM":"UTC","INCLINATION":"53.0548","FILE":"3116597","MEAN_MOTION_DOT":"0.00001224","MEAN_ELEMENT_THEORY":"SGP4","EPHEMERIS_TYPE":"0","PERIAPSIS":"545.747","GP_ID":"184787720","MEAN_ANOMALY":"297.8470","REF_FRAME":"TEME","PERIOD":"95.592","TLE_LINE1":"1 46327U 20062C   21258.88969668  .00001224  00000-0  10111-3 0  9996","COUNTRY_CODE":"US","ARG_OF_PERICENTER":"62.2736","ELEMENT_SET_NO":"999","BSTAR":"0.00010111000000","RCS_SIZE":"LARGE","APOAPSIS":"548.712","CLASSIFICATION_TYPE":"U","OBJECT_NAME":"STARLINK-1673","ECCENTRICITY":"0.00021410","LAUNCH_DATE":"2020-09-03","RA_OF_ASC_NODE":"160.0173","REV_AT_EPOCH":"5775","SEMIMAJOR_AXIS":"6925.364","SITE":"AFETR","CENTER_NAME":"EARTH","TLE_LINE2":"2 46327  53.0548 160.0173 0002141  62.2736 297.8470 15.06394809 57757","OBJECT_ID":"2020-062C","DECAY_DATE":null,"MEAN_MOTION_DDOT":"0.0000000000000","OBJECT_TYPE":"PAYLOAD"},{"APOAPSIS":"548.778","RCS_SIZE":"LARGE","ELEMENT_SET_NO":"999","BSTAR":"-0.00000098672000","ARG_OF_PERICENTER":"76.7273","COUNTRY_CODE":"US","TLE_LINE1":"1 46328U 20062D   21258.93577654 -.00000296  00000-0 -98672-6 0  9994","PERIOD":"95.593","GP_ID":"184787469","MEAN_ANOMALY":"283.3961","REF_FRAME":"TEME","EPHEMERIS_TYPE":"0","PERIAPSIS":"545.724","MEAN_MOTION_DOT":"-0.00000296","MEAN_ELEMENT_THEORY":"SGP4","FILE":"3116597","NORAD_CAT_ID":"46328","MEAN_MOTION":"15.06387873","TIME_SYSTEM":"UTC","INCLINATION":"53.0543","EPOCH":"2021-09-15T22:27:31.093056","OBJECT_TYPE":"PAYLOAD","MEAN_MOTION_DDOT":"0.0000000000000","OBJECT_ID":"2020-062D","DECAY_DATE":null,"TLE_LINE2":"2 46328  53.0543 139.8056 0002205  76.7273 283.3961 15.06387873 58045","SITE":"AFETR","CENTER_NAME":"EARTH","SEMIMAJOR_AXIS":"6925.386","REV_AT_EPOCH":"5804","LAUNCH_DATE":"2020-09-03","RA_OF_ASC_NODE":"139.8056","ECCENTRICITY":"0.00022050","CLASSIFICATION_TYPE":"U","OBJECT_NAME":"STARLINK-1686"},{"TLE_LINE2":"2 46329  53.0543 139.6516 0002075  63.6249 296.4952 15.06387719 58042","SITE":"AFETR","CENTER_NAME":"EARTH","REV_AT_EPOCH":"5804","SEMIMAJOR_AXIS":"6925.386","LAUNCH_DATE":"2020-09-03","RA_OF_ASC_NODE":"139.6516","ECCENTRICITY":"0.00020750","OBJECT_NAME":"STARLINK-1695","CLASSIFICATION_TYPE":"U","OBJECT_TYPE":"PAYLOAD","MEAN_MOTION_DDOT":"0.0000000000000","DECAY_DATE":null,"OBJECT_ID":"2020-062E","MEAN_ANOMALY":"296.4952","GP_ID":"184788221","REF_FRAME":"TEME","EPHEMERIS_TYPE":"0","PERIAPSIS":"545.814","MEAN_MOTION_DOT":"-0.00000737","MEAN_ELEMENT_THEORY":"SGP4","FILE":"3116597","MEAN_MOTION":"15.06387719","NORAD_CAT_ID":"46329","TIME_SYSTEM":"UTC","INCLINATION":"53.0543","EPOCH":"2021-09-15T23:15:17.537472","APOAPSIS":"548.688","RCS_SIZE":"LARGE","ELEMENT_SET_NO":"999","BSTAR":"-0.00003057700000","ARG_OF_PERICENTER":"63.6249","COUNTRY_CODE":"US","TLE_LINE1":"1 46329U 20062E   21258.96895298 -.00000737  00000-0 -30577-4 0  9993","PERIOD":"95.593"},{"OBJECT_TYPE":"PAYLOAD","MEAN_MOTION_DDOT":"0.0000000000000","OBJECT_ID":"2020-062F","DECAY_DATE":null,"TLE_LINE2":"2 46330  53.0534 139.7101 0002084  72.7135 287.4082 15.06390826 58058","SITE":"AFETR","CENTER_NAME":"EARTH","SEMIMAJOR_AXIS":"6925.377","REV_AT_EPOCH":"5805","RA_OF_ASC_NODE":"139.7101","LAUNCH_DATE":"2020-09-03","ECCENTRICITY":"0.00020840","CLASSIFICATION_TYPE":"U","OBJECT_NAME":"STARLINK-1710","APOAPSIS":"548.685","RCS_SIZE":"LARGE","ELEMENT_SET_NO":"999","BSTAR":"0.00000480890000","ARG_OF_PERICENTER":"72.7135","PERIOD":"95.593","TLE_LINE1":"1 46330U 20062F   21258.95789065 -.00000210  00000-0  48089-5 0  9991","COUNTRY_CODE":"US","REF_FRAME":"TEME","GP_ID":"184788469","MEAN_ANOMALY":"287.4082","EPHEMERIS_TYPE":"0","PERIAPSIS":"545.798","MEAN_MOTION_DOT":"-0.00000210","MEAN_ELEMENT_THEORY":"SGP4","FILE":"3116597","NORAD_CAT_ID":"46330","MEAN_MOTION":"15.06390826","TIME_SYSTEM":"UTC","INCLINATION":"53.0534","EPOCH":"2021-09-15T22:59:21.752160"}];
